[
    {
        "Altitude(m)": 558185.6676562713,
        "Argument of Periapsis(deg)": 0.033114955553567506,
        "Eccentricity": 0.0,
        "Inclination(deg)": 53.0,
        "Latitude(deg)": -17.762384662672574,
        "Longitude(deg)": -32.878506784751885,
        "Mean Anomaly(deg)": -22.269235662112052,
        "RAAN(deg)": 84.95071684264009,
        "Satellite Name": "Starlink Shell 1 391",
        "Satellite Number": 391,
        "Semi-Major Axis(m)": 6931778.249405717,
        "Time(s)": 950
    },
    {
        "Altitude(m)": 558036.3842466217,
        "Argument of Periapsis(deg)": 0.03346353403307874,
        "Eccentricity": 0.0,
        "Inclination(deg)": 53.0,
        "Latitude(deg)": -17.273630398780565,
        "Longitude(deg)": -32.50625477444365,
        "Mean Anomaly(deg)": -21.642404458555344,
        "RAAN(deg)": 84.95019807256261,
        "Satellite Name": "Starlink Shell 1 391",
        "Satellite Number": 391,
        "Semi-Major Axis(m)": 6931778.249405717,
        "Time(s)": 960
    },
    {
        "Altitude(m)": 557888.8582549513,
        "Argument of Periapsis(deg)": 0.03381211251258998,
        "Eccentricity": 0.0,
        "Inclination(deg)": 53.0,
        "Latitude(deg)": -16.78399124397175,
        "Longitude(deg)": -32.136165585119564,
        "Mean Anomaly(deg)": -21.01557325499862,
        "RAAN(deg)": 84.94967930248514,
        "Satellite Name": "Starlink Shell 1 391",
        "Satellite Number": 391,
        "Semi-Major Axis(m)": 6931778.249405717,
        "Time(s)": 970
    },
    {
        "Altitude(m)": 557743.1388707729,
        "Argument of Periapsis(deg)": 0.034160690992101214,
        "Eccentricity": 0.0,
        "Inclination(deg)": 53.0,
        "Latitude(deg)": -16.29349738384001,
        "Longitude(deg)": -31.76816692744819,
        "Mean Anomaly(deg)": -20.388742051441877,
        "RAAN(deg)": 84.94916053240767,
        "Satellite Name": "Starlink Shell 1 391",
        "Satellite Number": 391,
        "Semi-Major Axis(m)": 6931778.249405717,
        "Time(s)": 980
    },
    {
        "Altitude(m)": 557599.2743301945,
        "Argument of Periapsis(deg)": 0.034509269471612446,
        "Eccentricity": 0.0,
        "Inclination(deg)": 53.0,
        "Latitude(deg)": -15.802178543877371,
        "Longitude(deg)": -31.40218687620071,
        "Mean Anomaly(deg)": -19.761910847885204,
        "RAAN(deg)": 84.9486417623302,
        "Satellite Name": "Starlink Shell 1 391",
        "Satellite Number": 391,
        "Semi-Major Axis(m)": 6931778.249405717,
        "Time(s)": 990
    }
]